[{"OBJECT_NAME":"STARLINK-6120","OBJECT_ID":"2023-046AR","EPOCH":"2026-03-09T22:00:01.999584","MEAN_MOTION":15.07928727,"ECCENTRICITY":0.00010774,"INCLINATION":43.0007,"RA_OF_ASC_NODE":144.6551,"ARG_OF_PERICENTER":306.9184,"MEAN_ANOMALY":174.73,"EPHEMERIS_TYPE":0,"CLASSIFICATION_TYPE":"U","NORAD_CAT_ID":56131,"ELEMENT_SET_NO":999,"REV_AT_EPOCH":563,"BSTAR":0.002764446,"MEAN_MOTION_DOT":0.00043222,"MEAN_MOTION_DDOT":0},{"OBJECT_NAME":"CZ-6A DEB","OBJECT_ID":"2024-140AK","EPOCH":"2026-03-09T15:33:22.779648","MEAN_MOTION":14.91455209,"ECCENTRICITY":0.0138813,"INCLINATION":89.0614,"RA_OF_ASC_NODE":284.4893,"ARG_OF_PERICENTER":156.7754,"MEAN_ANOMALY":203.9833,"EPHEMERIS_TYPE":0,"CLASSIFICATION_TYPE":"U","NORAD_CAT_ID":60634,"ELEMENT_SET_NO":999,"REV_AT_EPOCH":8558,"BSTAR":0.0013703,"MEAN_MOTION_DOT":0.00016538,"MEAN_MOTION_DDOT":0}]
